{"type":"FeatureCollection","features":[{"type":"Feature","properties":{"height":9.600000000000001},"geometry":{"type":"Polygon","coordinates":[[[77.5878869,13.1289715],[77.5878577,13.1284763],[77.5877182,13.1284841],[77.5877223,13.1285538],[77.5874516,13.1285689],[77.5874542,13.1286132],[77.5874254,13.1286148],[77.5874257,13.128619],[77.5874275,13.1286501],[77.587375,13.128653],[77.5873206,13.1286561],[77.5873189,13.1286269],[77.5873187,13.1286225],[77.5872902,13.1286241],[77.5872882,13.1285914],[77.5870054,13.1286073],[77.5870021,13.1285505],[77.5868817,13.1285573],[77.5869108,13.1290504],[77.5868889,13.1290516],[77.5868906,13.1290803],[77.5868757,13.1290811],[77.5868775,13.1291126],[77.5866502,13.1291253],[77.5866398,13.1289492],[77.5867336,13.1289439],[77.5867158,13.128644],[77.5866329,13.1286486],[77.5866244,13.1285052],[77.5866233,13.1284864],[77.5869944,13.1284656],[77.5869913,13.1284133],[77.5873143,13.1283953],[77.5873191,13.1284776],[77.5874128,13.1284724],[77.5874078,13.1283879],[77.5877256,13.1283701],[77.5877274,13.1284007],[77.5881399,13.1283776],[77.5881493,13.1285376],[77.588007,13.1285456],[77.5880249,13.1288485],[77.5881765,13.12884],[77.588187,13.1290188],[77.5879449,13.1290324],[77.5879431,13.1290008],[77.5879248,13.1290018],[77.5879229,13.1289695],[77.5878869,13.1289715]]]}},{"type":"Feature","properties":{"height":9},"geometry":{"type":"Polygon","coordinates":[[[77.5884803,13.1311023],[77.5884891,13.1308608],[77.5889002,13.1308751],[77.5888913,13.1311166],[77.5884803,13.1311023]]]}},{"type":"Feature","properties":{"height":9},"geometry":{"type":"Polygon","coordinates":[[[77.5862769,13.1287131],[77.5862658,13.1285253],[77.5866244,13.1285052],[77.5866329,13.1286486],[77.5866355,13.1286931],[77.5864982,13.1287007],[77.5863969,13.1287064],[77.5862769,13.1287131]]]}},{"type":"Feature","properties":{"height":9},"geometry":{"type":"Polygon","coordinates":[[[77.5863604,13.1291403],[77.586349,13.1289464],[77.5863175,13.1289481],[77.5863062,13.1287566],[77.5863995,13.1287514],[77.5865009,13.1287457],[77.5865957,13.1287404],[77.586607,13.1289324],[77.5865692,13.1289345],[77.5865808,13.1291321],[77.586487,13.1291373],[77.5864848,13.1291005],[77.5864534,13.1291022],[77.5864553,13.129135],[77.5863604,13.1291403]]]}},{"type":"Feature","properties":{"height":9},"geometry":{"type":"Polygon","coordinates":[[[77.5872032,13.1294586],[77.5871867,13.1291453],[77.5872667,13.1291413],[77.5872719,13.1292385],[77.5873762,13.1292333],[77.5873711,13.129136],[77.5874804,13.1291306],[77.5874969,13.1294439],[77.5873869,13.1294494],[77.5873826,13.1293675],[77.5872837,13.1293725],[77.587288,13.1294544],[77.5872032,13.1294586]]]}},{"type":"Feature","properties":{"height":9.600000000000001},"geometry":{"type":"Polygon","coordinates":[[[77.5870807,13.1294967],[77.5872565,13.1294897],[77.5872578,13.1295204],[77.5873504,13.1295167],[77.5873564,13.1296611],[77.5872601,13.1296649],[77.5872617,13.1297051],[77.5871176,13.1297108],[77.5871148,13.129644],[77.5871,13.1296446],[77.5870972,13.1295773],[77.5870668,13.1295785],[77.5870652,13.1295407],[77.5870825,13.12954],[77.5870807,13.1294967]]]}},{"type":"Feature","properties":{"height":9},"geometry":{"type":"Polygon","coordinates":[[[77.5870962,13.1300346],[77.5870932,13.1299365],[77.5871613,13.1299345],[77.58716,13.1298916],[77.5871586,13.1298458],[77.5870905,13.1298477],[77.5870874,13.1297453],[77.5873884,13.1297366],[77.5873916,13.1298399],[77.5873015,13.1298425],[77.5873042,13.1299313],[77.5873943,13.1299287],[77.5873972,13.1300259],[77.5870962,13.1300346]]]}},{"type":"Feature","properties":{"height":9},"geometry":{"type":"Polygon","coordinates":[[[77.5869366,13.129956],[77.5869389,13.1300545],[77.586651,13.1300608],[77.5866498,13.1300084],[77.5866226,13.1300092],[77.5866191,13.1298836],[77.5866531,13.1298827],[77.5866526,13.1298638],[77.5866186,13.1298647],[77.5866149,13.1297334],[77.5866421,13.1297326],[77.5866407,13.1296829],[77.5869224,13.1296754],[77.5869232,13.1297035],[77.5869352,13.1297032],[77.5869361,13.1297377],[77.5869242,13.1297381],[77.5869248,13.1297625],[77.5868158,13.1297654],[77.5867855,13.1297662],[77.5866698,13.1297693],[77.5866722,13.1298542],[77.5867455,13.1298523],[77.5867439,13.1297959],[77.5867863,13.1297948],[77.5868166,13.129794],[77.5868446,13.1297932],[77.5868466,13.1298646],[77.5868486,13.1299359],[77.58682,13.1299367],[77.5867897,13.1299375],[77.5867479,13.1299386],[77.5867465,13.1298906],[77.5866733,13.1298926],[77.5866752,13.1299629],[77.5867903,13.1299599],[77.5868206,13.1299591],[77.5869366,13.129956]]]}},{"type":"Feature","properties":{"height":9},"geometry":{"type":"Polygon","coordinates":[[[77.586738,13.1305042],[77.5866787,13.1302173],[77.5867789,13.1301977],[77.5867743,13.1301754],[77.5868635,13.130158],[77.5868737,13.1302073],[77.5869602,13.1301903],[77.5869933,13.1303506],[77.5870209,13.1303452],[77.5870414,13.1304448],[77.586738,13.1305042]]]}},{"type":"Feature","properties":{"height":16},"geometry":{"type":"Polygon","coordinates":[[[77.5912564,13.1258441],[77.5912557,13.1259381],[77.591255,13.1260289],[77.5912544,13.1261016],[77.5911187,13.1261006],[77.5909965,13.1260997],[77.5909985,13.1258356],[77.5912564,13.1258441]]]}},{"type":"Feature","properties":{"height":16},"geometry":{"type":"Polygon","coordinates":[[[77.5913952,13.1253803],[77.5914054,13.1253134],[77.5913918,13.1253109],[77.5913755,13.1253079],[77.5913648,13.1253629],[77.5912054,13.1253335],[77.5911945,13.1253896],[77.5909282,13.1253404],[77.5909734,13.1251086],[77.5911462,13.1251405],[77.5914234,13.1251917],[77.5914135,13.1252422],[77.5914537,13.1252497],[77.5914463,13.1252874],[77.5914687,13.1252767],[77.591489,13.1253223],[77.5914759,13.1253278],[77.5915023,13.1253869],[77.5914167,13.125428],[77.5913952,13.1253803]]]}},{"type":"Feature","properties":{"height":16},"geometry":{"type":"Polygon","coordinates":[[[77.5913959,13.1261581],[77.5914755,13.1261425],[77.5915255,13.1261327],[77.5916661,13.126105],[77.5916811,13.1261773],[77.5916845,13.126194],[77.59169,13.126193],[77.5917799,13.1261753],[77.591812,13.1263301],[77.5914535,13.1264006],[77.5913959,13.1261581]]]}},{"type":"Feature","properties":{"height":19.200000000000003},"geometry":{"type":"Polygon","coordinates":[[[77.5901786,13.125547],[77.5906512,13.1256358],[77.5906936,13.1254221],[77.590511,13.1253877],[77.5905328,13.1252778],[77.5907154,13.1253121],[77.5907566,13.1251042],[77.590284,13.1250153],[77.5902428,13.1252233],[77.5904496,13.1252621],[77.5904278,13.1253721],[77.590221,13.1253332],[77.5901786,13.125547]]]}},{"type":"Feature","properties":{"height":16},"geometry":{"type":"Polygon","coordinates":[[[77.5895368,13.1254514],[77.5900094,13.1255403],[77.5900518,13.1253265],[77.5898692,13.1252922],[77.589891,13.1251822],[77.5900736,13.1252165],[77.5901148,13.1250086],[77.5896422,13.1249197],[77.589601,13.1251277],[77.5898077,13.1251665],[77.5897859,13.1252765],[77.5895792,13.1252376],[77.5895368,13.1254514]]]}},{"type":"Feature","properties":{"height":16},"geometry":{"type":"Polygon","coordinates":[[[77.5902858,13.1266347],[77.5907579,13.1265432],[77.5907143,13.1263297],[77.5905319,13.126365],[77.5905095,13.1262552],[77.5906919,13.1262199],[77.5906494,13.1260122],[77.5901774,13.1261036],[77.5902198,13.1263113],[77.5904263,13.1262713],[77.5904487,13.1263811],[77.5902422,13.1264211],[77.5902858,13.1266347]]]}},{"type":"Feature","properties":{"height":16},"geometry":{"type":"Polygon","coordinates":[[[77.5896241,13.1267231],[77.5900961,13.1266317],[77.5900525,13.1264181],[77.5898702,13.1264534],[77.5898477,13.1263436],[77.5900301,13.1263083],[77.5899877,13.1261006],[77.5895156,13.126192],[77.589558,13.1263997],[77.5897645,13.1263597],[77.589787,13.1264696],[77.5895805,13.1265096],[77.5896241,13.1267231]]]}},{"type":"Feature","properties":{"height":16},"geometry":{"type":"Polygon","coordinates":[[[77.5892385,13.1249298],[77.5892637,13.1249038],[77.5892947,13.1248846],[77.5893295,13.1248733],[77.5893661,13.1248706],[77.5894023,13.1248768],[77.5894359,13.1248913],[77.5894648,13.1249133],[77.5894873,13.1249416],[77.5895019,13.1249738],[77.5895081,13.1250084],[77.5895056,13.1250435],[77.5894945,13.125077],[77.5894755,13.1251069],[77.5894496,13.1251315],[77.5894185,13.1251493],[77.5893839,13.1251594],[77.5893478,13.125161],[77.5893132,13.1251544],[77.5892811,13.1251401],[77.5892534,13.1251189],[77.5892315,13.125092],[77.5892168,13.1250608],[77.58921,13.1250271],[77.5892114,13.1249927],[77.5892211,13.1249597],[77.5892385,13.1249298]]]}},{"type":"Feature","properties":{"height":16},"geometry":{"type":"Polygon","coordinates":[[[77.5887698,13.1265663],[77.5886196,13.1266212],[77.5884876,13.1262798],[77.588477,13.1262588],[77.5884629,13.12624],[77.5884449,13.126223],[77.5884241,13.1262095],[77.5884011,13.1261998],[77.5883767,13.1261943],[77.5883517,13.126193],[77.5883269,13.1261961],[77.588303,13.1262035],[77.5882809,13.1262149],[77.5882612,13.1262299],[77.5882446,13.1262481],[77.5882315,13.1262689],[77.5882225,13.1262917],[77.5882178,13.1263156],[77.5882174,13.1263391],[77.5882212,13.1263624],[77.5879975,13.1264452],[77.587984,13.1263666],[77.5879849,13.1263081],[77.5879967,13.1262485],[77.5880191,13.126192],[77.5880515,13.1261403],[77.5880929,13.126095],[77.5881419,13.1260576],[77.5881969,13.1260293],[77.5882562,13.126011],[77.5883179,13.1260033],[77.5883801,13.1260064],[77.5884407,13.1260202],[77.5884978,13.1260443],[77.5885496,13.1260779],[77.5885944,13.12612],[77.5886294,13.1261669],[77.5886557,13.126219],[77.5887158,13.126402],[77.5887698,13.1265663]]]}},{"type":"Feature","properties":{"height":38.400000000000006},"geometry":{"type":"Polygon","coordinates":[[[77.5893652,13.1288976],[77.5885686,13.1289029],[77.5885659,13.1285137],[77.5893626,13.1285085],[77.5893634,13.1286286],[77.5886545,13.1286332],[77.5886554,13.1287657],[77.5893643,13.1287611],[77.5893652,13.1288976]]]}},{"type":"Feature","properties":{"height":38.400000000000006},"geometry":{"type":"Polygon","coordinates":[[[77.5893652,13.1284288],[77.5885686,13.128434],[77.5885659,13.1280448],[77.5893626,13.1280396],[77.5893634,13.1281597],[77.5886545,13.1281644],[77.5886554,13.1282969],[77.5893643,13.1282922],[77.5893652,13.1284288]]]}},{"type":"Feature","properties":{"height":9.600000000000001},"geometry":{"type":"Polygon","coordinates":[[[77.5901077,13.1287496],[77.5899306,13.1287488],[77.5899308,13.1287043],[77.5897795,13.1287036],[77.5897805,13.1285057],[77.5896442,13.128505],[77.589646,13.1281402],[77.5901106,13.1281423],[77.5901077,13.1287496]]]}},{"type":"Feature","properties":{"height":16},"geometry":{"type":"Polygon","coordinates":[[[77.5891549,13.1294377],[77.588601,13.1294364],[77.5886019,13.1290629],[77.5891558,13.1290642],[77.5891555,13.1291908],[77.5887284,13.1291898],[77.5887282,13.1293058],[77.5891552,13.1293068],[77.5891549,13.1294377]]]}},{"type":"Feature","properties":{"height":16},"geometry":{"type":"Polygon","coordinates":[[[77.5891415,13.1299928],[77.5885876,13.1299914],[77.5885885,13.1296179],[77.5891424,13.1296193],[77.5891421,13.1297459],[77.588715,13.1297449],[77.5887147,13.1298608],[77.5891418,13.1298619],[77.5891415,13.1299928]]]}},{"type":"Feature","properties":{"height":16},"geometry":{"type":"Polygon","coordinates":[[[77.5891731,13.1305221],[77.5886193,13.1305273],[77.5886155,13.1301538],[77.5891694,13.1301486],[77.5891706,13.1302753],[77.5887436,13.1302793],[77.5887448,13.1303952],[77.5891718,13.1303912],[77.5891731,13.1305221]]]}},{"type":"Feature","properties":{"height":38.400000000000006},"geometry":{"type":"Polygon","coordinates":[[[77.5864758,13.12707],[77.5875267,13.1267604],[77.5874238,13.1264289],[77.5863729,13.1267385],[77.5864758,13.12707]]]}},{"type":"Feature","properties":{"height":9},"geometry":{"type":"Polygon","coordinates":[[[77.5881998,13.1271286],[77.5882622,13.1274231],[77.5883494,13.1274231],[77.5883494,13.127349],[77.5884784,13.127349],[77.5884784,13.1271286],[77.5881998,13.1271286]]]}},{"type":"Feature","properties":{"height":9.600000000000001},"geometry":{"type":"Polygon","coordinates":[[[77.5885668,13.1277177],[77.5885719,13.1277671],[77.5893577,13.1277587],[77.5893476,13.1276555],[77.5893441,13.1272847],[77.5891853,13.1272919],[77.5887312,13.1272841],[77.588674,13.1272882],[77.5886157,13.1273],[77.5885681,13.1273419],[77.5885668,13.1277177]]]}},{"type":"Feature","properties":{"height":16},"geometry":{"type":"Polygon","coordinates":[[[77.5902101,13.1282851],[77.5911462,13.1282955],[77.591149,13.1280551],[77.5902129,13.1280447],[77.5902101,13.1282851]]]}},{"type":"Feature","properties":{"height":9},"geometry":{"type":"Polygon","coordinates":[[[77.5917668,13.1266035],[77.5920711,13.1266419],[77.5920847,13.1265388],[77.5917805,13.1265005],[77.5917668,13.1266035]]]}},{"type":"Feature","properties":{"height":9},"geometry":{"type":"Polygon","coordinates":[[[77.5864517,13.1275764],[77.5864752,13.1276195],[77.5864623,13.1276262],[77.5864387,13.1275831],[77.5863656,13.127621],[77.5863092,13.1276503],[77.586105,13.1277561],[77.5863537,13.1280103],[77.5863714,13.1280284],[77.5864119,13.1279907],[77.5864178,13.1279968],[77.5863772,13.1280344],[77.5863645,13.1280462],[77.5863874,13.1280696],[77.5864076,13.1280902],[77.5864255,13.1281085],[77.5864382,13.1280967],[77.5865114,13.1281714],[77.5866294,13.1280983],[77.5864832,13.1279429],[77.5864873,13.1279024],[77.586616,13.1279377],[77.5866375,13.1277391],[77.5865154,13.1277378],[77.5865168,13.1277026],[77.5867152,13.1275955],[77.5866214,13.1274884],[77.5864517,13.1275764]]]}},{"type":"Feature","properties":{"height":9},"geometry":{"type":"Polygon","coordinates":[[[77.5875382,13.1277268],[77.5875963,13.1277177],[77.5875894,13.127676],[77.5876488,13.1276667],[77.5876116,13.1274415],[77.5877968,13.1274124],[77.587771,13.1272565],[77.5876721,13.127272],[77.5876818,13.1273305],[77.587595,13.1273441],[77.5875683,13.1271829],[77.5874513,13.1272013],[77.5875382,13.1277268]]]}},{"type":"Feature","properties":{"height":9},"geometry":{"type":"Polygon","coordinates":[[[77.587934,13.1281954],[77.5880439,13.1281782],[77.5879652,13.1277025],[77.5879121,13.1277108],[77.5878585,13.1277192],[77.5878925,13.1279252],[77.5877889,13.1279415],[77.5878039,13.1280323],[77.5879044,13.1280166],[77.587934,13.1281954]]]}},{"type":"Feature","properties":{"height":9},"geometry":{"type":"Polygon","coordinates":[[[77.5933966,13.1246921],[77.5935063,13.1246297],[77.5933392,13.1243511],[77.5932295,13.1244135],[77.5933966,13.1246921]]]}},{"type":"Feature","properties":{"height":9},"geometry":{"type":"Polygon","coordinates":[[[77.5862485,13.1284601],[77.5866549,13.1284536],[77.586653,13.1283449],[77.5862467,13.1283515],[77.5862485,13.1284601]]]}},{"type":"Feature","properties":{"height":9},"geometry":{"type":"Polygon","coordinates":[[[77.5867411,13.1273071],[77.5868696,13.1272686],[77.5868291,13.1271403],[77.5867006,13.1271787],[77.5867411,13.1273071]]]}},{"type":"Feature","properties":{"height":9},"geometry":{"type":"Polygon","coordinates":[[[77.5865592,13.1273666],[77.586663,13.1273376],[77.5866262,13.1272127],[77.5865224,13.1272417],[77.5865592,13.1273666]]]}},{"type":"Feature","properties":{"height":9},"geometry":{"type":"Polygon","coordinates":[[[77.5860709,13.1275648],[77.5861325,13.1275454],[77.5860959,13.1274349],[77.5860343,13.1274543],[77.5860709,13.1275648]]]}},{"type":"Feature","properties":{"height":9},"geometry":{"type":"Polygon","coordinates":[[[77.5861614,13.1275354],[77.5865328,13.1274244],[77.5864931,13.1272983],[77.5861216,13.1274093],[77.5861614,13.1275354]]]}},{"type":"Feature","properties":{"height":9},"geometry":{"type":"Polygon","coordinates":[[[77.5877759,13.1270531],[77.5878031,13.1270503],[77.587804,13.1270588],[77.5878284,13.1270564],[77.587825,13.127025],[77.5878395,13.1270235],[77.5878352,13.1269835],[77.5878537,13.1269816],[77.587858,13.1270217],[77.5878744,13.12702],[77.5878777,13.1270514],[77.5879041,13.1270487],[77.5879028,13.1270361],[77.5879325,13.1270331],[77.5879311,13.1270194],[77.5879586,13.1270166],[77.5879529,13.1269628],[77.5879216,13.1269659],[77.5879193,13.1269441],[77.5879443,13.1269415],[77.5879393,13.1268945],[77.5879043,13.1268981],[77.587903,13.1268858],[77.5878718,13.126889],[77.5878709,13.1268803],[77.5878529,13.1268821],[77.5878563,13.1269146],[77.5878007,13.1269202],[77.5877972,13.1268878],[77.5877777,13.1268897],[77.5877794,13.1269057],[77.5877509,13.1269086],[77.5877522,13.1269213],[77.5877281,13.1269237],[77.5877332,13.1269706],[77.5877592,13.126968],[77.5877623,13.1269968],[77.5877362,13.1269995],[77.5877409,13.1270432],[77.5877745,13.1270398],[77.5877759,13.1270531]]]}},{"type":"Feature","properties":{"height":9},"geometry":{"type":"Polygon","coordinates":[[[77.5878324,13.127628],[77.5878967,13.1276179],[77.5879498,13.1276096],[77.5878687,13.127119],[77.5877513,13.1271374],[77.587771,13.1272565],[77.5877968,13.1274124],[77.5878324,13.127628]]]}},{"type":"Feature","properties":{"height":9},"geometry":{"type":"Polygon","coordinates":[[[77.5926053,13.1262242],[77.5927341,13.1261641],[77.5926848,13.1260639],[77.5925561,13.126124],[77.5926053,13.1262242]]]}},{"type":"Feature","properties":{"height":9},"geometry":{"type":"Polygon","coordinates":[[[77.5917578,13.1233495],[77.5919229,13.1232781],[77.5919482,13.1232672],[77.5919034,13.1231688],[77.5917129,13.1232511],[77.5917578,13.1233495]]]}},{"type":"Feature","properties":{"height":9},"geometry":{"type":"Polygon","coordinates":[[[77.5922889,13.1241542],[77.5923741,13.1241202],[77.5923484,13.1240592],[77.5922633,13.1240932],[77.5922889,13.1241542]]]}},{"type":"Feature","properties":{"height":9},"geometry":{"type":"Polygon","coordinates":[[[77.5923888,13.1241117],[77.592474,13.1240778],[77.5924484,13.1240167],[77.5923632,13.1240507],[77.5923888,13.1241117]]]}},{"type":"Feature","properties":{"height":9},"geometry":{"type":"Polygon","coordinates":[[[77.5924227,13.1241852],[77.5925079,13.1241512],[77.5924822,13.1240902],[77.5923971,13.1241242],[77.5924227,13.1241852]]]}},{"type":"Feature","properties":{"height":9},"geometry":{"type":"Polygon","coordinates":[[[77.5923228,13.1242276],[77.592408,13.1241937],[77.5923823,13.1241327],[77.5922971,13.1241666],[77.5923228,13.1242276]]]}},{"type":"Feature","properties":{"height":9},"geometry":{"type":"Polygon","coordinates":[[[77.5922202,13.124272],[77.5923054,13.1242381],[77.5922797,13.1241771],[77.5921946,13.124211],[77.5922202,13.124272]]]}},{"type":"Feature","properties":{"height":9},"geometry":{"type":"Polygon","coordinates":[[[77.5921136,13.1243191],[77.5921987,13.1242851],[77.5921731,13.1242241],[77.5920879,13.124258],[77.5921136,13.1243191]]]}},{"type":"Feature","properties":{"height":9},"geometry":{"type":"Polygon","coordinates":[[[77.5919788,13.124289],[77.592064,13.1242551],[77.5920383,13.124194],[77.5919532,13.124228],[77.5919788,13.124289]]]}},{"type":"Feature","properties":{"height":9},"geometry":{"type":"Polygon","coordinates":[[[77.5920099,13.1243623],[77.5920951,13.1243284],[77.5920694,13.1242674],[77.5919842,13.1243013],[77.5920099,13.1243623]]]}},{"type":"Feature","properties":{"height":16},"geometry":{"type":"Polygon","coordinates":[[[77.591259,13.1255019],[77.5912583,13.1256025],[77.5912571,13.1257587],[77.5912569,13.1257749],[77.5909991,13.1257651],[77.5910012,13.1254967],[77.591259,13.1255019]]]}},{"type":"Feature","properties":{"height":16},"geometry":{"type":"Polygon","coordinates":[[[77.591388,13.1264134],[77.5913321,13.1261706],[77.5913959,13.1261581],[77.5914535,13.1264006],[77.591388,13.1264134]]]}},{"type":"Feature","properties":{"height":16},"geometry":{"type":"Polygon","coordinates":[[[77.5913321,13.1261706],[77.591388,13.1264134],[77.5910006,13.1264895],[77.5909501,13.1262456],[77.591119,13.1262125],[77.5913321,13.1261706]]]}},{"type":"Feature","properties":{"height":16},"geometry":{"type":"Polygon","coordinates":[[[77.5909985,13.1258356],[77.5909991,13.1257651],[77.5912569,13.1257749],[77.5912564,13.1258441],[77.5909985,13.1258356]]]}},{"type":"Feature","properties":{"height":16},"geometry":{"type":"Polygon","coordinates":[[[77.5916751,13.1256675],[77.5914689,13.125754],[77.5913258,13.1254717],[77.5914029,13.1254346],[77.5914167,13.125428],[77.5915023,13.1253869],[77.5915269,13.1253751],[77.5916751,13.1256675]]]}},{"type":"Feature","properties":{"height":16},"geometry":{"type":"Polygon","coordinates":[[[77.5916908,13.1257009],[77.5918291,13.1259729],[77.5917005,13.1260348],[77.5916218,13.1260728],[77.5914922,13.1258177],[77.5914836,13.1258008],[77.5916908,13.1257009]]]}},{"type":"Feature","properties":{"height":9},"geometry":{"type":"Polygon","coordinates":[[[77.5881055,13.1294749],[77.5881623,13.1294726],[77.588161,13.129448],[77.5881605,13.1294341],[77.5881608,13.1294233],[77.5881037,13.1294246],[77.5881055,13.1294749]]]}},{"type":"Feature","properties":{"height":9},"geometry":{"type":"Polygon","coordinates":[[[77.5875112,13.1296996],[77.5875402,13.1296984],[77.587538,13.1296447],[77.5875089,13.1296459],[77.5875112,13.1296996]]]}},{"type":"Feature","properties":{"height":9},"geometry":{"type":"Polygon","coordinates":[[[77.5897146,13.1305563],[77.5898822,13.1305504],[77.5898799,13.1304873],[77.5897123,13.1304931],[77.5897146,13.1305563]]]}},{"type":"Feature","properties":{"height":9},"geometry":{"type":"Polygon","coordinates":[[[77.5870277,13.1298798],[77.5870869,13.1298781],[77.5870831,13.1297556],[77.5870239,13.1297574],[77.5870277,13.1298798]]]}},{"type":"Feature","properties":{"height":9},"geometry":{"type":"Polygon","coordinates":[[[77.5874079,13.1296578],[77.5874971,13.1296543],[77.587491,13.1295089],[77.5874019,13.1295124],[77.5874079,13.1296578]]]}},{"type":"Feature","properties":{"height":9},"geometry":{"type":"Polygon","coordinates":[[[77.586869,13.1284616],[77.5869802,13.1284558],[77.5869722,13.1283099],[77.586861,13.1283157],[77.586869,13.1284616]]]}},{"type":"Feature","properties":{"height":9},"geometry":{"type":"Polygon","coordinates":[[[77.5878176,13.1282074],[77.5879035,13.1281939],[77.587884,13.1280761],[77.5877981,13.1280896],[77.5878176,13.1282074]]]}},{"type":"Feature","properties":{"height":9},"geometry":{"type":"Polygon","coordinates":[[[77.5879121,13.1277108],[77.5879652,13.1277025],[77.5879498,13.1276096],[77.5878967,13.1276179],[77.5879121,13.1277108]]]}},{"type":"Feature","properties":{"height":9},"geometry":{"type":"Polygon","coordinates":[[[77.5858281,13.1300953],[77.5859662,13.1301208],[77.5859854,13.1300219],[77.5858473,13.1299965],[77.5858281,13.1300953]]]}},{"type":"Feature","properties":{"height":9},"geometry":{"type":"Polygon","coordinates":[[[77.5867863,13.1297948],[77.5868166,13.129794],[77.5868158,13.1297654],[77.5867855,13.1297662],[77.5867863,13.1297948]]]}},{"type":"Feature","properties":{"height":9},"geometry":{"type":"Polygon","coordinates":[[[77.5867903,13.1299599],[77.5868206,13.1299591],[77.58682,13.1299367],[77.5867897,13.1299375],[77.5867903,13.1299599]]]}},{"type":"Feature","properties":{"height":9},"geometry":{"type":"Polygon","coordinates":[[[77.5863995,13.1287514],[77.5865009,13.1287457],[77.5864982,13.1287007],[77.5863969,13.1287064],[77.5863995,13.1287514]]]}},{"type":"Feature","properties":{"height":9},"geometry":{"type":"Polygon","coordinates":[[[77.5864349,13.1295082],[77.5865086,13.129505],[77.5865027,13.1293744],[77.5864289,13.1293776],[77.5864349,13.1295082]]]}},{"type":"Feature","properties":{"height":9},"geometry":{"type":"Polygon","coordinates":[[[77.5863625,13.1293489],[77.5865006,13.1293429],[77.5864953,13.1292261],[77.5863572,13.1292321],[77.5863625,13.1293489]]]}},{"type":"Feature","properties":{"height":9},"geometry":{"type":"Polygon","coordinates":[[[77.5869251,13.1301567],[77.5869861,13.1301501],[77.5869813,13.1301078],[77.5869412,13.1301121],[77.5869431,13.1301288],[77.5869222,13.130131],[77.5869251,13.1301567]]]}},{"type":"Feature","properties":{"height":9},"geometry":{"type":"Polygon","coordinates":[[[77.5878869,13.1294787],[77.5880366,13.1294742],[77.5880353,13.1294329],[77.5879601,13.1294352],[77.5879585,13.1293856],[77.587884,13.1293879],[77.5878869,13.1294787]]]}},{"type":"Feature","properties":{"height":9},"geometry":{"type":"Polygon","coordinates":[[[77.5868346,13.1308998],[77.5871243,13.1308332],[77.587082,13.130659],[77.5867923,13.1307256],[77.5868346,13.1308998]]]}},{"type":"Feature","properties":{"height":9},"geometry":{"type":"Polygon","coordinates":[[[77.5873147,13.1313086],[77.5874362,13.1313073],[77.5874314,13.1308854],[77.5873099,13.1308868],[77.5873147,13.1313086]]]}},{"type":"Feature","properties":{"height":9},"geometry":{"type":"Polygon","coordinates":[[[77.5872812,13.1318624],[77.5872771,13.1315084],[77.5874917,13.1315061],[77.5874932,13.1316364],[77.5875889,13.1316354],[77.5875895,13.1316815],[77.5876305,13.1316811],[77.5876326,13.1318586],[77.5872812,13.1318624]]]}},{"type":"Feature","properties":{"height":9.600000000000001},"geometry":{"type":"Polygon","coordinates":[[[77.5849657,13.1301776],[77.5850362,13.1301815],[77.5850457,13.1300188],[77.5849753,13.1300148],[77.5849657,13.1301776]]]}},{"type":"Feature","properties":{"height":9},"geometry":{"type":"Polygon","coordinates":[[[77.5923454,13.1256619],[77.5924696,13.1256089],[77.5924288,13.1255181],[77.5923045,13.1255712],[77.5923454,13.1256619]]]}},{"type":"Feature","properties":{"height":9},"geometry":{"type":"Polygon","coordinates":[[[77.585346,13.1317631],[77.5854801,13.1317931],[77.5855053,13.1316864],[77.5853712,13.1316563],[77.585346,13.1317631]]]}},{"type":"Feature","properties":{"height":9},"geometry":{"type":"Polygon","coordinates":[[[77.5881623,13.1294726],[77.5882121,13.1294712],[77.5882107,13.1294219],[77.5881608,13.1294233],[77.5881623,13.1294726]]]}},{"type":"Feature","properties":{"height":9},"geometry":{"type":"Polygon","coordinates":[[[77.5930573,13.1264984],[77.5931129,13.1266224],[77.5932477,13.126565],[77.5931921,13.1264411],[77.5930573,13.1264984]]]}},{"type":"Feature","properties":{"height":9},"geometry":{"type":"Polygon","coordinates":[[[77.5930204,13.1264168],[77.5931458,13.1263635],[77.5930962,13.1262529],[77.5929708,13.1263062],[77.5930204,13.1264168]]]}},{"type":"Feature","properties":{"height":9},"geometry":{"type":"Polygon","coordinates":[[[77.5926228,13.126232],[77.5926709,13.1263394],[77.5928159,13.1262777],[77.5927677,13.1261703],[77.5926228,13.126232]]]}},{"type":"Feature","properties":{"height":9},"geometry":{"type":"Polygon","coordinates":[[[77.5925101,13.1264083],[77.5926603,13.1263444],[77.5926107,13.1262339],[77.5924606,13.1262978],[77.5925101,13.1264083]]]}},{"type":"Feature","properties":{"height":9},"geometry":{"type":"Polygon","coordinates":[[[77.592028,13.1253315],[77.5921632,13.125274],[77.5921125,13.125161],[77.5919773,13.1252185],[77.592028,13.1253315]]]}},{"type":"Feature","properties":{"height":9},"geometry":{"type":"Polygon","coordinates":[[[77.592082,13.1250533],[77.592209,13.1249992],[77.592142,13.1248498],[77.5920149,13.1249038],[77.592082,13.1250533]]]}},{"type":"Feature","properties":{"height":9},"geometry":{"type":"Polygon","coordinates":[[[77.5890259,13.1221244],[77.5891399,13.122191],[77.5892241,13.1220544],[77.5891101,13.1219878],[77.5890259,13.1221244]]]}},{"type":"Feature","properties":{"height":9},"geometry":{"type":"Polygon","coordinates":[[[77.5893639,13.1219324],[77.589467,13.1219296],[77.589463,13.1217898],[77.5893599,13.1217926],[77.5893639,13.1219324]]]}},{"type":"Feature","properties":{"height":9},"geometry":{"type":"Polygon","coordinates":[[[77.5899379,13.1313517],[77.5898393,13.1316724],[77.5899109,13.1316827],[77.590053,13.1314097],[77.5899379,13.1313517]]]}}]}